CCSDS_OMM_VERS = 2.0
CREATION_DATE  = 
ORIGINATOR     = 

OBJECT_NAME    = UNKNOWN
OBJECT_ID      = 
CENTER_NAME    = EARTH
REF_FRAME      = TEME
TIME_SYSTEM    = UTC
MEAN_ELEMENT_THEORY = SGP/SGP4

EPOCH          = 2025-11-17T09:29:16.148256
MEAN_MOTION    = 9.24175088
ECCENTRICITY   = .2838396
INCLINATION    = 62.4794
RA_OF_ASC_NODE = 36.5355
ARG_OF_PERICENTER = 98.3714
MEAN_ANOMALY   = 294.4729

EPHEMERIS_TYPE = 0
CLASSIFICATION_TYPE = U
NORAD_CAT_ID   = 89251
ELEMENT_SET_NO = 999
REV_AT_EPOCH   = 37084
BSTAR          = .68112E-2
MEAN_MOTION_DOT = .1179E-3
MEAN_MOTION_DDOT = 0

CCSDS_OMM_VERS = 2.0
CREATION_DATE  = 
ORIGINATOR     = 

OBJECT_NAME    = UNKNOWN
OBJECT_ID      = 
CENTER_NAME    = EARTH
REF_FRAME      = TEME
TIME_SYSTEM    = UTC
MEAN_ELEMENT_THEORY = SGP/SGP4

EPOCH          = 2025-11-16T06:25:34.655808
MEAN_MOTION    = 14.43041138
ECCENTRICITY   = .0011711
INCLINATION    = 98.1540
RA_OF_ASC_NODE = 315.8218
ARG_OF_PERICENTER = 237.3570
MEAN_ANOMALY   = 122.6491

EPHEMERIS_TYPE = 0
CLASSIFICATION_TYPE = U
NORAD_CAT_ID   = 89261
ELEMENT_SET_NO = 999
REV_AT_EPOCH   = 52999
BSTAR          = .59352E-3
MEAN_MOTION_DOT = .1949E-4
MEAN_MOTION_DDOT = 0

CCSDS_OMM_VERS = 2.0
CREATION_DATE  = 
ORIGINATOR     = 

OBJECT_NAME    = UNKNOWN
OBJECT_ID      = 
CENTER_NAME    = EARTH
REF_FRAME      = TEME
TIME_SYSTEM    = UTC
MEAN_ELEMENT_THEORY = SGP/SGP4

EPOCH          = 2025-11-16T16:51:43.744896
MEAN_MOTION    = 9.02627595
ECCENTRICITY   = .2844022
INCLINATION    = 84.3699
RA_OF_ASC_NODE = 110.8761
ARG_OF_PERICENTER = 19.3098
MEAN_ANOMALY   = 357.0268

EPHEMERIS_TYPE = 0
CLASSIFICATION_TYPE = U
NORAD_CAT_ID   = 89304
ELEMENT_SET_NO = 999
REV_AT_EPOCH   = 43605
BSTAR          = .1462E-1
MEAN_MOTION_DOT = .11173E-3
MEAN_MOTION_DDOT = 0

CCSDS_OMM_VERS = 2.0
CREATION_DATE  = 
ORIGINATOR     = 

OBJECT_NAME    = UNKNOWN
OBJECT_ID      = 
CENTER_NAME    = EARTH
REF_FRAME      = TEME
TIME_SYSTEM    = UTC
MEAN_ELEMENT_THEORY = SGP/SGP4

EPOCH          = 2025-11-13T14:01:16.132800
MEAN_MOTION    = 12.96229604
ECCENTRICITY   = .0028328
INCLINATION    = 90.2471
RA_OF_ASC_NODE = 6.7007
ARG_OF_PERICENTER = 345.7438
MEAN_ANOMALY   = 14.2880

EPHEMERIS_TYPE = 0
CLASSIFICATION_TYPE = U
NORAD_CAT_ID   = 89349
ELEMENT_SET_NO = 999
REV_AT_EPOCH   = 47497
BSTAR          = .20897E-2
MEAN_MOTION_DOT = .604E-5
MEAN_MOTION_DDOT = 0

CCSDS_OMM_VERS = 2.0
CREATION_DATE  = 
ORIGINATOR     = 

OBJECT_NAME    = UNKNOWN
OBJECT_ID      = 
CENTER_NAME    = EARTH
REF_FRAME      = TEME
TIME_SYSTEM    = UTC
MEAN_ELEMENT_THEORY = SGP/SGP4

EPOCH          = 2025-11-17T12:38:18.676320
MEAN_MOTION    = 13.62440528
ECCENTRICITY   = .0044744
INCLINATION    = 100.4848
RA_OF_ASC_NODE = 334.9277
ARG_OF_PERICENTER = 190.6345
MEAN_ANOMALY   = 169.3851

EPHEMERIS_TYPE = 0
CLASSIFICATION_TYPE = U
NORAD_CAT_ID   = 89379
ELEMENT_SET_NO = 999
REV_AT_EPOCH   = 57734
BSTAR          = .79609E-2
MEAN_MOTION_DOT = .6174E-4
MEAN_MOTION_DDOT = 0

CCSDS_OMM_VERS = 2.0
CREATION_DATE  = 
ORIGINATOR     = 

OBJECT_NAME    = UNKNOWN
OBJECT_ID      = 
CENTER_NAME    = EARTH
REF_FRAME      = TEME
TIME_SYSTEM    = UTC
MEAN_ELEMENT_THEORY = SGP/SGP4

EPOCH          = 2025-11-13T08:39:33.867360
MEAN_MOTION    = 12.01508003
ECCENTRICITY   = .0220207
INCLINATION    = 102.3610
RA_OF_ASC_NODE = 287.2462
ARG_OF_PERICENTER = 174.5270
MEAN_ANOMALY   = 350.2300

EPHEMERIS_TYPE = 0
CLASSIFICATION_TYPE = U
NORAD_CAT_ID   = 89395
ELEMENT_SET_NO = 999
REV_AT_EPOCH   = 52121
BSTAR          = .44311E-2
MEAN_MOTION_DOT = .35E-5
MEAN_MOTION_DDOT = 0

CCSDS_OMM_VERS = 2.0
CREATION_DATE  = 
ORIGINATOR     = 

OBJECT_NAME    = UNKNOWN
OBJECT_ID      = 
CENTER_NAME    = EARTH
REF_FRAME      = TEME
TIME_SYSTEM    = UTC
MEAN_ELEMENT_THEORY = SGP/SGP4

EPOCH          = 2025-11-13T03:03:17.100864
MEAN_MOTION    = 12.98710749
ECCENTRICITY   = .0025575
INCLINATION    = 90.2498
RA_OF_ASC_NODE = 5.1365
ARG_OF_PERICENTER = 293.6295
MEAN_ANOMALY   = 93.0522

EPHEMERIS_TYPE = 0
CLASSIFICATION_TYPE = U
NORAD_CAT_ID   = 89403
ELEMENT_SET_NO = 999
REV_AT_EPOCH   = 47398
BSTAR          = .31952E-2
MEAN_MOTION_DOT = .952E-5
MEAN_MOTION_DDOT = 0

CCSDS_OMM_VERS = 2.0
CREATION_DATE  = 
ORIGINATOR     = 

OBJECT_NAME    = UNKNOWN
OBJECT_ID      = 
CENTER_NAME    = EARTH
REF_FRAME      = TEME
TIME_SYSTEM    = UTC
MEAN_ELEMENT_THEORY = SGP/SGP4

EPOCH          = 2025-11-15T12:22:59.570400
MEAN_MOTION    = 9.12254512
ECCENTRICITY   = .2857415
INCLINATION    = 84.1230
RA_OF_ASC_NODE = 162.4918
ARG_OF_PERICENTER = 62.4901
MEAN_ANOMALY   = 323.7030

EPHEMERIS_TYPE = 0
CLASSIFICATION_TYPE = U
NORAD_CAT_ID   = 89484
ELEMENT_SET_NO = 999
REV_AT_EPOCH   = 35295
BSTAR          = .42693E-1
MEAN_MOTION_DOT = .52066E-3
MEAN_MOTION_DDOT = 0

CCSDS_OMM_VERS = 2.0
CREATION_DATE  = 
ORIGINATOR     = 

OBJECT_NAME    = UNKNOWN
OBJECT_ID      = 
CENTER_NAME    = EARTH
REF_FRAME      = TEME
TIME_SYSTEM    = UTC
MEAN_ELEMENT_THEORY = SGP/SGP4

EPOCH          = 2025-11-16T10:35:34.761984
MEAN_MOTION    = 14.16070694
ECCENTRICITY   = .0082973
INCLINATION    = 99.0291
RA_OF_ASC_NODE = 28.9532
ARG_OF_PERICENTER = 115.3528
MEAN_ANOMALY   = 245.6267

EPHEMERIS_TYPE = 0
CLASSIFICATION_TYPE = U
NORAD_CAT_ID   = 89493
ELEMENT_SET_NO = 999
REV_AT_EPOCH   = 46022
BSTAR          = .21918E-2
MEAN_MOTION_DOT = .4433E-4
MEAN_MOTION_DDOT = 0

CCSDS_OMM_VERS = 2.0
CREATION_DATE  = 
ORIGINATOR     = 

OBJECT_NAME    = UNKNOWN
OBJECT_ID      = 
CENTER_NAME    = EARTH
REF_FRAME      = TEME
TIME_SYSTEM    = UTC
MEAN_ELEMENT_THEORY = SGP/SGP4

EPOCH          = 2025-11-16T15:15:33.499296
MEAN_MOTION    = 14.16002789
ECCENTRICITY   = .008355
INCLINATION    = 99.0289
RA_OF_ASC_NODE = 29.0390
ARG_OF_PERICENTER = 114.9165
MEAN_ANOMALY   = 246.0720

EPHEMERIS_TYPE = 0
CLASSIFICATION_TYPE = U
NORAD_CAT_ID   = 89494
ELEMENT_SET_NO = 999
REV_AT_EPOCH   = 46010
BSTAR          = .22221E-2
MEAN_MOTION_DOT = .4491E-4
MEAN_MOTION_DDOT = 0

